OBJECT_NAME,OBJECT_ID,EPOCH,MEAN_MOTION,ECCENTRICITY,INCLINATION,RA_OF_ASC_NODE,ARG_OF_PERICENTER,MEAN_ANOMALY,EPHEMERIS_TYPE,CLASSIFICATION_TYPE,NORAD_CAT_ID,ELEMENT_SET_NO,REV_AT_EPOCH,BSTAR,MEAN_MOTION_DOT,MEAN_MOTION_DDOT
H-2A R/B,2006-002B,2026-07-08T22:28:05.332512,15.18377997,.00504245,98.2584,347.7399,187.2932,172.7573,0,U,28932,999,11282,.26202164E-3,.5483E-4,0
RESURS-DK 1,2006-021A,2026-07-08T15:36:44.667936,15.13304712,.00067591,69.9328,283.9905,278.5152,81.5248,0,U,29228,999,10582,.73054691E-4,.1195E-4,0
CZ-4B R/B,2006-046C,2026-07-08T16:16:37.626528,15.17947659,.00319442,97.5443,234.2190,204.9089,155.0604,0,U,29507,999,7839,.15053359E-3,.3024E-4,0
CZ-2C R/B,2007-010B,2026-07-08T21:34:27.039648,14.20280807,.00579118,98.4114,297.1898,302.4456,57.1129,0,U,31114,999,99692,.39250491E-4,.44E-6,0
COSMO-SKYMED 1,2007-023A,2026-07-08T23:45:34.240896,14.97200908,.00010465,97.8845,22.0302,92.5630,267.5711,0,U,31598,999,3305,.13284964E-3,.1476E-4,0
COSMOS 2428,2007-029A,2026-07-08T17:40:29.159040,14.12931186,.00071694,70.9381,309.2315,93.7559,266.4382,0,U,31792,999,98119,.11143967E-3,.16E-5,0
SL-16 R/B,2007-029B,2026-07-08T16:22:11.535744,14.14850853,.00021513,70.9753,278.0443,258.0227,210.0073,0,U,31793,999,98248,-.46997406E-4,-.139E-5,0
KORONAS-FOTON,2009-003A,2026-07-08T22:57:10.357632,15.46195308,.00125367,82.4293,149.5433,81.4124,278.8544,0,U,33504,999,96446,.18908862E-3,.935E-4,0
CZ-2C R/B,2011-030B,2026-07-08T20:31:18.253632,14.81523817,.00511955,97.8665,144.8521,317.3058,95.9852,0,U,37731,999,80803,.10754071E-3,.807E-5,0
H-2A R/B,2012-025E,2026-07-08T21:33:08.576352,14.95827088,.00421334,98.4845,166.8363,276.3890,83.2532,0,U,38341,999,76633,.14015807E-3,.1521E-4,0
SHIJIAN-16 (SJ-16),2013-057A,2026-07-08T22:56:32.419392,14.92657977,.00160307,74.9737,315.4520,179.7250,180.3951,0,U,39358,999,68959,.70172131E-4,.695E-5,0
SL-4 R/B,2014-021B,2026-07-08T04:32:06.847296,15.42381949,.00901642,51.6052,107.8513,182.7463,177.3039,0,U,39679,999,67485,.15160744E-3,.7242E-4,0
ALOS-2,2014-029A,2026-07-08T22:00:24.588000,14.79473812,.00016302,97.9221,286.7703,91.4844,268.6554,0,U,39766,999,65479,.14020373E-3,.996E-5,0
YAOGAN-29,2015-069A,2026-07-08T23:16:37.084224,14.83102849,.00011885,98.0024,218.6358,21.2022,338.9240,0,U,41038,999,57385,.40418288E-4,.275E-5,0
ASTRO-H (HITOMI),2016-012A,2026-07-08T10:38:52.759680,15.10613943,.00095367,30.9999,296.8992,107.1927,252.9756,0,U,41337,999,57050,.10222202E-3,.1828E-4,0
HXMT (HUIYAN),2017-034A,2026-07-08T23:19:16.266720,15.18651146,.00327268,43.0146,61.7239,282.8441,76.8752,0,U,42758,999,50097,.15975068E-3,.317E-4,0
SAOCOM 1A,2018-076A,2026-07-09T05:05:13.422624,14.82144946,.0001444,97.8886,16.6401,88.9378,271.2001,0,U,43641,999,41936,.84866E-4,.623E-5,0
H-2A R/B,2018-084L,2026-07-08T18:02:44.394144,15.46022957,.00208441,98.8546,73.3657,324.4335,35.5519,0,U,43682,999,42445,.31445353E-3,.15368E-3,0
SAOCOM 1B,2020-059A,2026-07-08T23:21:21.481920,14.82155440,.00015875,97.8898,15.5013,79.7836,280.3556,0,U,46265,999,31671,.10289074E-4,.3E-6,0
CSS (TIANHE),2021-035A,2026-07-09T06:05:17.956320,15.58018130,.0002664,41.4687,187.8435,281.4115,78.6423,0,U,48274,999,29661,.17467E-4,.1018E-4,0
COSMOS 2550,2021-056A,2026-07-08T20:51:05.399136,15.33783671,.00083881,67.1430,34.3205,271.3817,88.6377,0,U,48865,999,28204,.30470972E-4,.809E-5,0
CZ-2C R/B,2022-058K,2026-07-08T22:04:44.839488,15.63475706,.00307869,50.1859,50.3035,356.6391,3.4372,0,U,52794,999,22904,.33551391E-3,.3203E-3,0
CZ-2C R/B,2022-132E,2026-07-08T23:23:09.703104,15.74351437,.00107135,97.2895,198.0134,9.4182,350.7282,0,U,54039,999,20937,.35231701E-3,.51033E-3,0
GSLV R/B,2022-138AN,2026-07-08T20:06:51.986016,14.97364266,.00240712,87.3814,125.7137,73.0620,287.3248,0,U,54149,999,20205,.18162195E-3,.215E-4,0
XRISM,2023-137A,2026-07-08T12:08:14.995968,15.12641157,.00078078,31.0012,221.4908,179.3343,180.7307,0,U,57800,999,15609,.12454899E-3,.233E-4,0
ACS3,2024-077B,2026-07-08T17:29:25.647648,13.95348812,.01157962,97.1729,103.7376,44.1510,316.8829,0,U,59588,999,11104,.17586014E-1,.25234E-3,0
SPACEMOBILE-003,2024-163A,2026-07-08T10:39:36.490176,15.20786252,.00055128,52.9689,211.6870,175.5813,184.5231,0,U,61045,999,10100,.44099421E-4,.657E-5,0
SPACEMOBILE-005,2024-163B,2026-07-08T13:25:02.853984,15.20764273,.00089243,52.9798,211.1011,177.1519,182.9528,0,U,61046,999,10101,.42521976E-3,.9176E-4,0
SPACEMOBILE-001,2024-163C,2026-07-08T11:48:14.698656,15.20812105,.00075215,52.9747,211.1260,173.6655,186.4436,0,U,61047,999,10100,.3983529E-4,.562E-5,0
SPACEMOBILE-002,2024-163D,2026-07-08T11:25:13.505664,15.20856992,.00067298,52.9765,211.2391,173.3276,186.7809,0,U,61048,999,10100,.20198264E-3,.4194E-4,0
