H-2A R/B                
1 28932U 06002B   26189.93617283  .00005483  00000+0  26202-3 0  9991
2 28932  98.2584 347.7399 0050424 187.2932 172.7573 15.18377997112824
RESURS-DK 1             
1 29228U 06021A   26189.65051699  .00001195  00000+0  73055-4 0  9998
2 29228  69.9328 283.9905 0006759 278.5152  81.5248 15.13304712105826
CZ-4B R/B               
1 29507U 06046C   26189.67821327  .00003024  00000+0  15053-3 0  9996
2 29507  97.5443 234.2190 0031944 204.9089 155.0604 15.17947659 78393
CZ-2C R/B               
1 31114U 07010B   26189.89892407  .00000044  00000+0  39250-4 0  9991
2 31114  98.4114 297.1898 0057911 302.4456  57.1129 14.20280807996922
COSMO-SKYMED 1          
1 31598U 07023A   26189.98997964  .00001476  00000+0  13285-3 0  9994
2 31598  97.8845  22.0302 0001046  92.5630 267.5711 14.97200908 33054
COSMOS 2428             
1 31792U 07029A   26189.73644860  .00000160  00000+0  11144-3 0  9994
2 31792  70.9381 309.2315 0007169  93.7559 266.4382 14.12931186981191
SL-16 R/B               
1 31793U 07029B   26189.68207796 -.00000139  00000+0 -46997-4 0  9995
2 31793  70.9753 278.0443 0002151 258.0227 210.0073 14.14850853982482
KORONAS-FOTON           
1 33504U 09003A   26189.95636988  .00009350  00000+0  18909-3 0  9993
2 33504  82.4293 149.5433 0012536  81.4124 278.8544 15.46195308964460
CZ-2C R/B               
1 37731U 11030B   26189.85507238  .00000807  00000+0  10754-3 0  9994
2 37731  97.8665 144.8521 0051195 317.3058  95.9852 14.81523817808034
H-2A R/B                
1 38341U 12025E   26189.89801593  .00001521  00000+0  14016-3 0  9991
2 38341  98.4845 166.8363 0042133 276.3890  83.2532 14.95827088766330
SHIJIAN-16 (SJ-16)      
1 39358U 13057A   26189.95593078  .00000695  00000+0  70172-4 0  9996
2 39358  74.9737 315.4520 0016030 179.7250 180.3951 14.92657977689599
SL-4 R/B                
1 39679U 14021B   26189.18896814  .00007242  00000+0  15161-3 0  9994
2 39679  51.6052 107.8513 0090164 182.7463 177.3039 15.42381949674857
ALOS-2                  
1 39766U 14029A   26189.91695125  .00000996  00000+0  14020-3 0  9994
2 39766  97.9221 286.7703 0001630  91.4844 268.6554 14.79473812654799
YAOGAN-29               
1 41038U 15069A   26189.96987366  .00000275  00000+0  40418-4 0  9991
2 41038  98.0024 218.6358 0001188  21.2022 338.9240 14.83102849573858
ASTRO-H (HITOMI)        
1 41337U 16012A   26189.44366620  .00001828  00000+0  10222-3 0  9993
2 41337  30.9999 296.8992 0009536 107.1927 252.9756 15.10613943570500
HXMT (HUIYAN)           
1 42758U 17034A   26189.97171605  .00003170  00000+0  15975-3 0  9993
2 42758  43.0146  61.7239 0032726 282.8441  76.8752 15.18651146500977
SAOCOM 1A               
1 43641U 18076A   26190.21196091  .00000623  00000+0  84866-4 0  9993
2 43641  97.8886  16.6401 0001444  88.9378 271.2001 14.82144946419369
H-2A R/B                
1 43682U 18084L   26189.75190271  .00015368  00000+0  31445-3 0  9994
2 43682  98.8546  73.3657 0020844 324.4335  35.5519 15.46022957424456
SAOCOM 1B               
1 46265U 20059A   26189.97316530  .00000030  00000+0  10289-4 0  9995
2 46265  97.8898  15.5013 0001587  79.7836 280.3556 14.82155440316711
CSS (TIANHE)            
1 48274U 21035A   26190.25368005  .00001018  00000+0  17467-4 0  9991
2 48274  41.4687 187.8435 0002664 281.4115  78.6423 15.58018130296619
COSMOS 2550             
1 48865U 21056A   26189.86881249  .00000809  00000+0  30471-4 0  9992
2 48865  67.1430  34.3205 0008388 271.3817  88.6377 15.33783671282046
CZ-2C R/B               
1 52794U 22058K   26189.91996342  .00032030  00000+0  33551-3 0  9990
2 52794  50.1859  50.3035 0030786 356.6391   3.4372 15.63475706229040
CZ-2C R/B               
1 54039U 22132E   26189.97441786  .00051033  00000+0  35232-3 0  9992
2 54039  97.2895 198.0134 0010713   9.4182 350.7282 15.74351437209373
GSLV R/B                
1 54149U 22138AN  26189.83810169  .00002150  00000+0  18162-3 0  9999
2 54149  87.3814 125.7137 0024071  73.0620 287.3248 14.97364266202055
XRISM                   
1 57800U 23137A   26189.50572912  .00002330  00000+0  12455-3 0  9990
2 57800  31.0012 221.4908 0007807 179.3343 180.7307 15.12641157156097
ACS3                    
1 59588U 24077B   26189.72876907  .00025234  00000+0  17586-1 0  9990
2 59588  97.1729 103.7376 0115796  44.1510 316.8829 13.95348812111041
SPACEMOBILE-003         
1 61045U 24163A   26189.44417234  .00000657  00000+0  44099-4 0  9994
2 61045  52.9689 211.6870 0005512 175.5813 184.5231 15.20786252101009
SPACEMOBILE-005         
1 61046U 24163B   26189.55906081  .00009176  00000+0  42522-3 0  9993
2 61046  52.9798 211.1011 0008924 177.1519 182.9528 15.20764273101015
SPACEMOBILE-001         
1 61047U 24163C   26189.49183679  .00000562  00000+0  39835-4 0  9991
2 61047  52.9747 211.1260 0007521 173.6655 186.4436 15.20812105101004
SPACEMOBILE-002         
1 61048U 24163D   26189.47585076  .00004194  00000+0  20198-3 0  9993
2 61048  52.9765 211.2391 0006729 173.3276 186.7809 15.20856992101005
